[Satellite]
VERSION=1.1
NAME=GPS BIIRM-6 (PRN 07)
NICKNAME=GPS BIIRM-6 (PRN 07)
TLE1=1 32711U 08012A   18020.39110283  .00000014  00000-0  00000-0 0  9998
TLE2=2 32711  54.9951 272.9067 0112417 215.1559 144.1777  2.00560639 72209
